SL-16 R/B               
1 22803U 93059B   26111.88425278 -.00000143  00000+0 -46758-4 0  9999
2 22803  70.9890 280.0363 0016015 151.0727 209.1288 14.17238239685658
ARIANE 40 R/B           
1 22830U 93061H   26112.20266676  .00000136  00000+0  65704-4 0  9996
2 22830  98.4849 180.2152 0011441 150.2807 209.9030 14.32882769700338
COSMOS 2278             
1 23087U 94023A   26112.23419404  .00000282  00000+0  17216-3 0  9998
2 23087  71.0526  83.9917 0010261 312.4498  47.5756 14.14385118650967
SL-16 R/B               
1 23088U 94023B   26112.04892138 -.00000207  00000+0 -82015-4 0  9996
2 23088  71.0006 339.8307 0005335 246.6893 113.3669 14.15016007652225
SL-16 R/B               
1 23343U 94074B   26112.07267023  .00000284  00000+0  44620-4 0  9991
2 23343  97.7044 141.1204 0008084  82.5312 301.1276 14.79452994693666
SL-16 R/B               
1 23405U 94077B   26111.87231715  .00000235  00000+0  14480-3 0  9995
2 23405  70.9821 261.6372 0000662 140.0086 220.1086 14.15570726622347
ARIANE 40+ R/B          
1 23561U 95021B   26112.17493906  .00000186  00000+0  73011-4 0  9995
2 23561  98.4435 183.0531 0006963  22.5853   4.0280 14.39801327625502
SL-16 R/B               
1 23705U 95058B   26112.23473323 -.00000039  00000+0  42481-5 0  9999
2 23705  71.0202  88.8313 0010810  45.3529 314.8473 14.15505288574016
SL-16 R/B               
1 24298U 96051B   26112.29592719  .00000061  00000+0  59455-4 0  9990
2 24298  70.7594  82.9394 0012501  72.9631 287.2857 14.12426749527802
ORBVIEW 2 (SEASTAR)     
1 24883U 97037A   26111.91150465  .00000180  00000+0  78951-4 0  9995
2 24883  98.8637 277.3850 0001197 309.4220  50.6859 14.35522996514670
SL-16 R/B               
1 25400U 98043G   26112.16256267  .00000044  00000+0  37438-4 0  9998
2 25400  98.8322  65.8540 0008808 246.2385 113.7872 14.26059093445187
SL-16 R/B               
1 25407U 98045B   26112.15363263 -.00000247  00000+0 -10071-3 0  9991
2 25407  71.0095  90.1687 0009237 307.6168  52.4116 14.16198038433252
ISS (ZARYA)             
1 25544U 98067A   26112.19984875  .00008419  00000+0  16138-3 0  9996
2 25544  51.6321 217.2027 0006732 336.5555  23.5126 15.48885886563072
CZ-4B R/B               
1 25732U 99025C   26112.04629103  .00000008  00000+0  24777-4 0  9999
2 25732  98.6542 155.2829 0036436 218.7800 170.2168 14.18273447394311
OKEAN-O                 
1 25860U 99039A   26112.11350714  .00000397  00000+0  58789-4 0  9994
2 25860  97.9362 171.5445 0001430 115.3568 244.7793 14.80397951440813
SL-16 R/B               
1 25861U 99039B   26112.12017986  .00000355  00000+0  51737-4 0  9997
2 25861  97.9883 171.1322 0016103 114.6356 245.6536 14.81786232443297
DELTA 2 R/B             
1 25876U 99041E   26112.04730560  .00000279  00000+0  85115-4 0  9999
2 25876  51.7594 128.0686 0502513 116.2827 249.0629 14.11923052369159
