[{"OBJECT_NAME":"SL-16 R/B","OBJECT_ID":"1993-059B","EPOCH":"2026-04-21T21:13:19.440192","MEAN_MOTION":14.17238239,"ECCENTRICITY":0.0016015,"INCLINATION":70.989,"RA_OF_ASC_NODE":280.0363,"ARG_OF_PERICENTER":151.0727,"MEAN_ANOMALY":209.1288,"EPHEMERIS_TYPE":0,"CLASSIFICATION_TYPE":"U","NORAD_CAT_ID":22803,"ELEMENT_SET_NO":999,"REV_AT_EPOCH":68565,"BSTAR":-4.6758e-5,"MEAN_MOTION_DOT":-1.43e-6,"MEAN_MOTION_DDOT":0},{"OBJECT_NAME":"ARIANE 40 R/B","OBJECT_ID":"1993-061H","EPOCH":"2026-04-22T04:51:50.408064","MEAN_MOTION":14.32882769,"ECCENTRICITY":0.00114417,"INCLINATION":98.4849,"RA_OF_ASC_NODE":180.2152,"ARG_OF_PERICENTER":150.2807,"MEAN_ANOMALY":209.903,"EPHEMERIS_TYPE":0,"CLASSIFICATION_TYPE":"U","NORAD_CAT_ID":22830,"ELEMENT_SET_NO":999,"REV_AT_EPOCH":70033,"BSTAR":6.5704051e-5,"MEAN_MOTION_DOT":1.36e-6,"MEAN_MOTION_DDOT":0},{"OBJECT_NAME":"COSMOS 2278","OBJECT_ID":"1994-023A","EPOCH":"2026-04-22T05:37:14.365056","MEAN_MOTION":14.14385118,"ECCENTRICITY":0.00102614,"INCLINATION":71.0526,"RA_OF_ASC_NODE":83.9917,"ARG_OF_PERICENTER":312.4498,"MEAN_ANOMALY":47.5756,"EPHEMERIS_TYPE":0,"CLASSIFICATION_TYPE":"U","NORAD_CAT_ID":23087,"ELEMENT_SET_NO":999,"REV_AT_EPOCH":65096,"BSTAR":0.00017215697,"MEAN_MOTION_DOT":2.82e-6,"MEAN_MOTION_DDOT":0},{"OBJECT_NAME":"SL-16 R/B","OBJECT_ID":"1994-023B","EPOCH":"2026-04-22T01:10:26.807232","MEAN_MOTION":14.15016007,"ECCENTRICITY":0.00053356,"INCLINATION":71.0006,"RA_OF_ASC_NODE":339.8307,"ARG_OF_PERICENTER":246.6893,"MEAN_ANOMALY":113.3669,"EPHEMERIS_TYPE":0,"CLASSIFICATION_TYPE":"U","NORAD_CAT_ID":23088,"ELEMENT_SET_NO":999,"REV_AT_EPOCH":65222,"BSTAR":-8.2014891e-5,"MEAN_MOTION_DOT":-2.07e-6,"MEAN_MOTION_DDOT":0},{"OBJECT_NAME":"SL-16 R/B","OBJECT_ID":"1994-074B","EPOCH":"2026-04-22T01:44:38.707872","MEAN_MOTION":14.79452994,"ECCENTRICITY":0.00080844,"INCLINATION":97.7044,"RA_OF_ASC_NODE":141.1204,"ARG_OF_PERICENTER":82.5312,"MEAN_ANOMALY":301.1276,"EPHEMERIS_TYPE":0,"CLASSIFICATION_TYPE":"U","NORAD_CAT_ID":23343,"ELEMENT_SET_NO":999,"REV_AT_EPOCH":69366,"BSTAR":4.4620403e-5,"MEAN_MOTION_DOT":2.84e-6,"MEAN_MOTION_DDOT":0},{"OBJECT_NAME":"SL-16 R/B","OBJECT_ID":"1994-077B","EPOCH":"2026-04-21T20:56:08.201760","MEAN_MOTION":14.15570726,"ECCENTRICITY":6.62e-5,"INCLINATION":70.9821,"RA_OF_ASC_NODE":261.6372,"ARG_OF_PERICENTER":140.0086,"MEAN_ANOMALY":220.1086,"EPHEMERIS_TYPE":0,"CLASSIFICATION_TYPE":"U","NORAD_CAT_ID":23405,"ELEMENT_SET_NO":999,"REV_AT_EPOCH":62234,"BSTAR":0.0001448,"MEAN_MOTION_DOT":2.35e-6,"MEAN_MOTION_DDOT":0},{"OBJECT_NAME":"ARIANE 40+ R/B","OBJECT_ID":"1995-021B","EPOCH":"2026-04-22T04:11:54.734784","MEAN_MOTION":14.39801327,"ECCENTRICITY":0.00069636,"INCLINATION":98.4435,"RA_OF_ASC_NODE":183.0531,"ARG_OF_PERICENTER":22.5853,"MEAN_ANOMALY":4.028,"EPHEMERIS_TYPE":0,"CLASSIFICATION_TYPE":"U","NORAD_CAT_ID":23561,"ELEMENT_SET_NO":999,"REV_AT_EPOCH":62550,"BSTAR":7.3011286e-5,"MEAN_MOTION_DOT":1.86e-6,"MEAN_MOTION_DDOT":0},{"OBJECT_NAME":"SL-16 R/B","OBJECT_ID":"1995-058B","EPOCH":"2026-04-22T05:38:00.951072","MEAN_MOTION":14.15505288,"ECCENTRICITY":0.00108101,"INCLINATION":71.0202,"RA_OF_ASC_NODE":88.8313,"ARG_OF_PERICENTER":45.3529,"MEAN_ANOMALY":314.8473,"EPHEMERIS_TYPE":0,"CLASSIFICATION_TYPE":"U","NORAD_CAT_ID":23705,"ELEMENT_SET_NO":999,"REV_AT_EPOCH":57401,"BSTAR":4.248144e-6,"MEAN_MOTION_DOT":-3.9e-7,"MEAN_MOTION_DDOT":0},{"OBJECT_NAME":"SL-16 R/B","OBJECT_ID":"1996-051B","EPOCH":"2026-04-22T07:06:08.109216","MEAN_MOTION":14.12426749,"ECCENTRICITY":0.00125014,"INCLINATION":70.7594,"RA_OF_ASC_NODE":82.9394,"ARG_OF_PERICENTER":72.9631,"MEAN_ANOMALY":287.2857,"EPHEMERIS_TYPE":0,"CLASSIFICATION_TYPE":"U","NORAD_CAT_ID":24298,"ELEMENT_SET_NO":999,"REV_AT_EPOCH":52780,"BSTAR":5.9455163e-5,"MEAN_MOTION_DOT":6.1e-7,"MEAN_MOTION_DDOT":0},{"OBJECT_NAME":"ORBVIEW 2 (SEASTAR)","OBJECT_ID":"1997-037A","EPOCH":"2026-04-21T21:52:34.001760","MEAN_MOTION":14.35522996,"ECCENTRICITY":0.0001197,"INCLINATION":98.8637,"RA_OF_ASC_NODE":277.385,"ARG_OF_PERICENTER":309.422,"MEAN_ANOMALY":50.6859,"EPHEMERIS_TYPE":0,"CLASSIFICATION_TYPE":"U","NORAD_CAT_ID":24883,"ELEMENT_SET_NO":999,"REV_AT_EPOCH":51467,"BSTAR":7.8951e-5,"MEAN_MOTION_DOT":1.8e-6,"MEAN_MOTION_DDOT":0},{"OBJECT_NAME":"SL-16 R/B","OBJECT_ID":"1998-043G","EPOCH":"2026-04-22T03:54:05.414688","MEAN_MOTION":14.26059093,"ECCENTRICITY":0.00088081,"INCLINATION":98.8322,"RA_OF_ASC_NODE":65.854,"ARG_OF_PERICENTER":246.2385,"MEAN_ANOMALY":113.7872,"EPHEMERIS_TYPE":0,"CLASSIFICATION_TYPE":"U","NORAD_CAT_ID":25400,"ELEMENT_SET_NO":999,"REV_AT_EPOCH":44518,"BSTAR":3.7438077e-5,"MEAN_MOTION_DOT":4.4e-7,"MEAN_MOTION_DDOT":0},{"OBJECT_NAME":"SL-16 R/B","OBJECT_ID":"1998-045B","EPOCH":"2026-04-22T03:41:13.859232","MEAN_MOTION":14.16198038,"ECCENTRICITY":0.00092373,"INCLINATION":71.0095,"RA_OF_ASC_NODE":90.1687,"ARG_OF_PERICENTER":307.6168,"MEAN_ANOMALY":52.4116,"EPHEMERIS_TYPE":0,"CLASSIFICATION_TYPE":"U","NORAD_CAT_ID":25407,"ELEMENT_SET_NO":999,"REV_AT_EPOCH":43325,"BSTAR":-0.00010070804,"MEAN_MOTION_DOT":-2.47e-6,"MEAN_MOTION_DDOT":0},{"OBJECT_NAME":"ISS (ZARYA)","OBJECT_ID":"1998-067A","EPOCH":"2026-04-22T04:47:46.932000","MEAN_MOTION":15.48885886,"ECCENTRICITY":0.00067323,"INCLINATION":51.6321,"RA_OF_ASC_NODE":217.2027,"ARG_OF_PERICENTER":336.5555,"MEAN_ANOMALY":23.5126,"EPHEMERIS_TYPE":0,"CLASSIFICATION_TYPE":"U","NORAD_CAT_ID":25544,"ELEMENT_SET_NO":999,"REV_AT_EPOCH":56307,"BSTAR":0.0001613791,"MEAN_MOTION_DOT":8.419e-5,"MEAN_MOTION_DDOT":0},{"OBJECT_NAME":"CZ-4B R/B","OBJECT_ID":"1999-025C","EPOCH":"2026-04-22T01:06:39.544992","MEAN_MOTION":14.18273447,"ECCENTRICITY":0.00364361,"INCLINATION":98.6542,"RA_OF_ASC_NODE":155.2829,"ARG_OF_PERICENTER":218.78,"MEAN_ANOMALY":170.2168,"EPHEMERIS_TYPE":0,"CLASSIFICATION_TYPE":"U","NORAD_CAT_ID":25732,"ELEMENT_SET_NO":999,"REV_AT_EPOCH":39431,"BSTAR":2.4776938e-5,"MEAN_MOTION_DOT":8.0e-8,"MEAN_MOTION_DDOT":0},{"OBJECT_NAME":"OKEAN-O","OBJECT_ID":"1999-039A","EPOCH":"2026-04-22T02:43:27.016896","MEAN_MOTION":14.80397951,"ECCENTRICITY":0.00014305,"INCLINATION":97.9362,"RA_OF_ASC_NODE":171.5445,"ARG_OF_PERICENTER":115.3568,"MEAN_ANOMALY":244.7793,"EPHEMERIS_TYPE":0,"CLASSIFICATION_TYPE":"U","NORAD_CAT_ID":25860,"ELEMENT_SET_NO":999,"REV_AT_EPOCH":44081,"BSTAR":5.8789229e-5,"MEAN_MOTION_DOT":3.97e-6,"MEAN_MOTION_DDOT":0},{"OBJECT_NAME":"SL-16 R/B","OBJECT_ID":"1999-039B","EPOCH":"2026-04-22T02:53:03.539904","MEAN_MOTION":14.81786232,"ECCENTRICITY":0.00161037,"INCLINATION":97.9883,"RA_OF_ASC_NODE":171.1322,"ARG_OF_PERICENTER":114.6356,"MEAN_ANOMALY":245.6536,"EPHEMERIS_TYPE":0,"CLASSIFICATION_TYPE":"U","NORAD_CAT_ID":25861,"ELEMENT_SET_NO":999,"REV_AT_EPOCH":44329,"BSTAR":5.1737337e-5,"MEAN_MOTION_DOT":3.55e-6,"MEAN_MOTION_DDOT":0},{"OBJECT_NAME":"DELTA 2 R/B","OBJECT_ID":"1999-041E","EPOCH":"2026-04-22T01:08:07.203840","MEAN_MOTION":14.11923052,"ECCENTRICITY":0.0502513,"INCLINATION":51.7594,"RA_OF_ASC_NODE":128.0686,"ARG_OF_PERICENTER":116.2827,"MEAN_ANOMALY":249.0629,"EPHEMERIS_TYPE":0,"CLASSIFICATION_TYPE":"U","NORAD_CAT_ID":25876,"ELEMENT_SET_NO":999,"REV_AT_EPOCH":36915,"BSTAR":8.5114529e-5,"MEAN_MOTION_DOT":2.79e-6,"MEAN_MOTION_DDOT":0}]
